NORAD_CAT_ID,OBJECT_NAME,OBJECT_TYPE,EPOCH,MEAN_MOTION,ECCENTRICITY,INCLINATION,RA_OF_ASC_NODE,ARG_OF_PERICENTER,MEAN_ANOMALY,BSTAR,MEAN_MOTION_DOT,MEAN_MOTION_DDOT,TLE_LINE0,TLE_LINE1,TLE_LINE2,SEMIMAJOR_AXIS,PERIOD,APOGEE,PERIGEE,DECAYED
54768.0,STARLINK-5444,PAYLOAD,2023-05-04 02:32:55,15.08839631,0.0001425,53.218,20.7058,85.9681,274.1474,-5.7748e-05,-1.207e-05,0.0,0 STARLINK-5444,1 54768U 22175L   23124.10619273 -.00001207  00000-0 -57748-4 0  9995,2 54768  53.2180  20.7058 0001425  85.9681 274.1474 15.08839631 20872,6917.882,95.438,540.732,538.761,0.0
54768.0,STARLINK-5444,PAYLOAD,2023-05-04 10:29:50,15.08840016,0.0001488,53.2183,19.2201,85.7451,274.3712,-4.3079e-05,-9.74e-06,0.0,0 STARLINK-5444,1 54768U 22175L   23124.43739201 -.00000974  00000-0 -43079-4 0  9997,2 54768  53.2183  19.2201 0001488  85.7451 274.3712 15.08840016 23082,6917.88,95.438,540.775,538.716,0.0
54768.0,STARLINK-5444,PAYLOAD,2023-05-04 21:37:32,15.08843195,0.0001412,53.2179,17.1406,82.8518,277.2635,-1.1283e-05,-4.68e-06,0.0,0 STARLINK-5444,1 54768U 22175L   23124.90106953 -.00000468  00000-0 -11283-4 0  9991,2 54768  53.2179  17.1406 0001412  82.8518 277.2635 15.08843195 23155,6917.871,95.437,540.712,538.759,0.0
54768.0,STARLINK-5444,PAYLOAD,2023-05-05 02:23:41,15.08846226,0.0001375,53.2171,16.2469,85.8617,274.2532,1.0061e-05,-1.28e-06,0.0,0 STARLINK-5444,1 54768U 22175L   23125.09978590 -.00000128  00000-0  10061-4 0  9991,2 54768  53.2171  16.2469 0001375  85.8617 274.2532 15.08846226 21022,6917.861,95.437,540.678,538.775,0.0
54768.0,STARLINK-5444,PAYLOAD,2023-05-05 21:28:19,15.08836276,0.0001333,53.2162,12.6785,84.029,276.0854,2.6024e-05,1.26e-06,0.0,0 STARLINK-5444,1 54768U 22175L   23125.89467177  .00000126  00000-0  26024-4 0  9996,2 54768  53.2162  12.6785 0001333  84.0290 276.0854 15.08836276 23309,6917.892,95.438,540.679,538.835,0.0
54768.0,STARLINK-5444,PAYLOAD,2023-05-05 23:03:42,15.08840487,0.0001071,53.2156,12.3799,89.524,270.5875,3.5972e-05,2.85e-06,0.0,0 STARLINK-5444,1 54768U 22175L   23125.96090812  .00000285  00000-0  35972-4 0  9990,2 54768  53.2156  12.3799 0001071  89.5240 270.5875 15.08840487 21150,6917.879,95.438,540.485,539.003,0.0
54768.0,STARLINK-5444,PAYLOAD,2023-05-07 02:05:15,15.08848785,0.0001149,53.2163,7.3264,82.471,277.6412,2.3601e-05,8.8e-07,0.0,0 STARLINK-5444,1 54768U 22175L   23127.08698278  .00000088  00000-0  23601-4 0  9992,2 54768  53.2163   7.3264 0001149  82.4710 277.6412 15.08848785 21322,6917.854,95.437,540.513,538.924,0.0
54768.0,STARLINK-5444,PAYLOAD,2023-05-07 21:09:54,15.08828298,0.0001084,53.2153,3.7536,82.2863,277.8252,-0.00010943,-2.028e-05,0.0,0 STARLINK-5444,1 54768U 22175L   23127.88188369 -.00002028  00000-0 -10943-3 0  9997,2 54768  53.2153   3.7536 0001084  82.2863 277.8252 15.08828298 21442,6917.916,95.438,540.531,539.031,0.0
54768.0,STARLINK-5444,PAYLOAD,2023-05-08 08:17:36,15.08826893,0.0001306,53.2167,1.6697,85.0734,275.0407,0.00015603,2.195e-05,0.0,0 STARLINK-5444,1 54768U 22175L   23128.34555864  .00002195  00000-0  15603-3 0  9998,2 54768  53.2167   1.6697 0001306  85.0734 275.0407 15.08826893 21516,6917.92,95.438,540.689,538.882,0.0
54768.0,STARLINK-5444,PAYLOAD,2023-05-08 19:25:17,15.08844077,0.0001193,53.2162,359.5873,68.5641,291.5479,-2.6698e-05,-7.13e-06,0.0,0 STARLINK-5444,1 54768U 22175L   23128.80923356 -.00000713  00000-0 -26698-4 0  9997,2 54768  53.2162 359.5873 0001193  68.5641 291.5479 15.08844077 21582,6917.868,95.437,540.558,538.908,0.0
54768.0,STARLINK-5444,PAYLOAD,2023-05-08 21:00:40,15.08847332,0.0001137,53.2164,359.2938,75.2056,284.9062,-2.8796e-06,-3.34e-06,0.0,0 STARLINK-5444,1 54768U 22175L   23128.87547072 -.00000334  00000-0 -28796-5 0  9992,2 54768  53.2164 359.2938 0001137  75.2056 284.9062 15.08847332 23758,6917.858,95.437,540.51,538.936,0.0
54768.0,STARLINK-5444,PAYLOAD,2023-05-09 22:26:51,15.08849192,0.0001175,53.2168,354.5326,61.6103,298.5008,-0.0001289,-2.339e-05,0.0,0 STARLINK-5444,1 54768U 22175L   23129.93531594 -.00002339  00000-0 -12890-3 0  9995,2 54768  53.2168 354.5326 0001175  61.6103 298.5008 15.08849192 23910,6917.852,95.437,540.53,538.904,0.0
54768.0,STARLINK-5444,PAYLOAD,2023-05-10 20:42:15,15.08843614,0.0001123,53.2169,350.377,102.8569,257.2549,-9.3503e-06,-4.37e-06,0.0,0 STARLINK-5444,1 54768U 22175L   23130.86267427 -.00000437  00000-0 -93503-5 0  9999,2 54768  53.2169 350.3770 0001123 102.8569 257.2549 15.08843614 24056,6917.869,95.437,540.511,538.957,0.0
54768.0,STARLINK-5444,PAYLOAD,2023-05-10 22:17:38,15.08830685,0.0001301,53.2169,350.08,92.1914,267.9228,0.0002218,3.243e-05,0.0,0 STARLINK-5444,1 54768U 22175L   23130.92891318  .00003243  00000-0  22180-3 0  9995,2 54768  53.2169 350.0800 0001301  92.1914 267.9228 15.08830685 24067,6917.909,95.438,540.674,538.874,0.0
54768.0,STARLINK-5444,PAYLOAD,2023-05-11 20:33:02,15.08833413,0.0001345,53.2179,345.9152,77.3111,282.8031,-2.2271e-05,-6.42e-06,0.0,0 STARLINK-5444,1 54768U 22175L   23131.85628228 -.00000642  00000-0 -22271-4 0  9990,2 54768  53.2179 345.9152 0001345  77.3111 282.8031 15.08833413 22049,6917.901,95.438,540.696,538.835,0.0
54768.0,STARLINK-5444,PAYLOAD,2023-05-12 18:48:26,15.08842915,0.00012,53.2162,341.7516,82.2248,277.888,-6.3882e-07,-2.98e-06,0.0,0 STARLINK-5444,1 54768U 22175L   23132.78363653 -.00000298  00000-0 -63882-6 0  9993,2 54768  53.2162 341.7516 0001200  82.2248 277.8880 15.08842915 22183,6917.871,95.437,540.567,538.906,0.0
54768.0,STARLINK-5444,PAYLOAD,2023-05-13 12:17:40,15.08838284,0.0001248,53.2153,338.4826,65.0929,295.0193,1.68e-05,-2e-07,0.0,0 STARLINK-5444,1 54768U 22175L   23133.51227930 -.00000020  00000-0  16800-4 0  9990,2 54768  53.2153 338.4826 0001248  65.0929 295.0193 15.08838284 24452,6917.886,95.438,540.614,538.887,0.0
54768.0,STARLINK-5444,PAYLOAD,2023-05-13 20:14:36,15.08836686,0.0001187,53.216,336.9944,68.2965,291.8153,3.8233e-06,-2.27e-06,0.0,0 STARLINK-5444,1 54768U 22175L   23133.84348093 -.00000227  00000-0  38233-5 0  9994,2 54768  53.2160 336.9944 0001187  68.2965 291.8153 15.08836686 24501,6917.891,95.438,540.577,538.934,0.0
54768.0,STARLINK-5444,PAYLOAD,2023-05-14 12:08:28,15.08839113,0.0001193,53.2157,334.0209,67.7156,292.3963,-3.7487e-05,-8.84e-06,0.0,0 STARLINK-5444,1 54768U 22175L   23134.50588216 -.00000884  00000-0 -37487-4 0  9990,2 54768  53.2157 334.0209 0001193  67.7156 292.3963 15.08839113 24607,6917.883,95.438,540.573,538.923,0.0
54768.0,STARLINK-5444,PAYLOAD,2023-05-14 20:05:23,15.08844583,9.97e-05,53.216,332.5332,89.6188,270.4919,-3.7939e-05,-8.92e-06,0.0,0 STARLINK-5444,1 54768U 22175L   23134.83707776 -.00000892  00000-0 -37939-4 0  9991,2 54768  53.2160 332.5332 0000997  89.6188 270.4919 15.08844583 24650,6917.866,95.437,540.421,539.042,0.0
54768.0,STARLINK-5444,PAYLOAD,2023-05-15 05:37:42,15.08841848,0.0001061,53.2165,330.751,96.8068,263.3044,-6.7448e-05,-1.361e-05,0.0,0 STARLINK-5444,1 54768U 22175L   23135.23451978 -.00001361  00000-0 -67448-4 0  9996,2 54768  53.2165 330.7510 0001061  96.8068 263.3044 15.08841848 22551,6917.875,95.437,540.474,539.006,0.0
54768.0,STARLINK-5444,PAYLOAD,2023-05-15 13:34:38,15.08830022,0.0001162,53.217,329.265,99.2969,260.8155,-2.7386e-05,-7.23e-06,0.0,0 STARLINK-5444,1 54768U 22175L   23135.56572703 -.00000723  00000-0 -27386-4 0  9990,2 54768  53.2170 329.2650 0001162  99.2969 260.8155 15.08830022 22607,6917.911,95.438,540.58,538.972,0.0
54768.0,STARLINK-5444,PAYLOAD,2023-05-15 19:56:11,15.08833202,0.0001167,53.217,328.0766,98.9169,261.1955,-5.4888e-07,-2.97e-06,0.0,0 STARLINK-5444,1 54768U 22175L   23135.83068535 -.00000297  00000-0 -54888-6 0  9998,2 54768  53.2170 328.0766 0001167  98.9169 261.1955 15.08833202 24804,6917.901,95.438,540.573,538.959,0.0
54768.0,STARLINK-5444,PAYLOAD,2023-05-16 11:50:03,15.08803493,0.0001051,53.217,325.1034,100.8917,259.2193,0.00041579,6.329e-05,0.0,0 STARLINK-5444,1 54768U 22175L   23136.49309489  .00006329  00000-0  41579-3 0  9997,2 54768  53.2170 325.1034 0001051 100.8917 259.2193 15.08803493 22748,6917.992,95.44,540.584,539.13,0.0
54768.0,STARLINK-5444,PAYLOAD,2023-05-16 21:22:21,15.08835429,0.0001113,53.2167,323.3168,82.4716,277.6402,4.3976e-06,-2.18e-06,0.0,0 STARLINK-5444,1 54768U 22175L   23136.89052773 -.00000218  00000-0  43976-5 0  9999,2 54768  53.2167 323.3168 0001113  82.4716 277.6402 15.08835429 22801,6917.894,95.438,540.529,538.989,0.0
54768.0,STARLINK-5444,PAYLOAD,2023-05-17 19:37:45,15.08841633,0.0001054,53.2162,319.1523,81.0039,279.1073,7.0746e-05,8.38e-06,0.0,0 STARLINK-5444,1 54768U 22175L   23137.81788257  .00000838  00000-0  70746-4 0  9996,2 54768  53.2162 319.1523 0001054  81.0039 279.1073 15.08841633 25102,6917.875,95.437,540.47,539.011,0.0
54768.0,STARLINK-5444,PAYLOAD,2023-05-18 00:23:54,15.08844933,9.49e-05,53.216,318.2602,77.1958,282.914,9.2718e-05,1.188e-05,0.0,0 STARLINK-5444,1 54768U 22175L   23138.01659914  .00001188  00000-0  92718-4 0  9998,2 54768  53.2160 318.2602 0000949  77.1958 282.9140 15.08844933 22971,6917.865,95.437,540.387,539.074,0.0
54768.0,STARLINK-5444,PAYLOAD,2023-05-18 13:06:59,15.08848179,0.0001092,53.2161,315.8805,80.4922,279.6194,6.3137e-05,7.17e-06,0.0,0 STARLINK-5444,1 54768U 22175L   23138.54651651  .00000717  00000-0  63137-4 0  9996,2 54768  53.2161 315.8805 0001092  80.4922 279.6194 15.08848179 25216,6917.855,95.437,540.476,538.965,0.0
54768.0,STARLINK-5444,PAYLOAD,2023-05-18 17:53:10,15.08831116,0.0001049,53.2161,314.9886,79.6131,280.4979,-6.1752e-05,-1.27e-05,0.0,0 STARLINK-5444,1 54768U 22175L   23138.74525464 -.00001270  00000-0 -61752-4 0  9998,2 54768  53.2161 314.9886 0001049  79.6131 280.4979 15.08831116 23086,6917.908,95.438,540.498,539.047,0.0
54768.0,STARLINK-5444,PAYLOAD,2023-05-18 19:28:32,15.08834711,0.0001077,53.2161,314.6908,76.0393,284.0719,-3.9329e-05,-9.14e-06,0.0,0 STARLINK-5444,1 54768U 22175L   23138.81149189 -.00000914  00000-0 -39329-4 0  9991,2 54768  53.2161 314.6908 0001077  76.0393 284.0719 15.08834711 25257,6917.897,95.438,540.507,539.016,0.0
